QZS-1R                  
1 49336U 21096A   23219.55604903 -.00000325  00000+0  00000+0 0  9991
2 49336  35.2944  95.3419 0759676 272.2987 278.7053  1.00238802  6532
